[{"OBJECT_NAME":"ONEWEB-0120","OBJECT_ID":"2020-100J","EPOCH":"2025-11-30T13:19:08.032512","MEAN_MOTION":13.12441262,"ECCENTRICITY":0.00017033,"INCLINATION":87.8946,"RA_OF_ASC_NODE":30.1443,"ARG_OF_PERICENTER":97.5055,"MEAN_ANOMALY":262.6267,"EPHEMERIS_TYPE":0,"CLASSIFICATION_TYPE":"U","NORAD_CAT_ID":47266,"ELEMENT_SET_NO":999,"REV_AT_EPOCH":23867,"BSTAR":-0.00036653631,"MEAN_MOTION_DOT":-1.19e-6,"MEAN_MOTION_DDOT":0},{"OBJECT_NAME":"ONEWEB-0121","OBJECT_ID":"2020-100K","EPOCH":"2025-11-30T14:52:22.037664","MEAN_MOTION":13.12442607,"ECCENTRICITY":0.00019238,"INCLINATION":87.8954,"RA_OF_ASC_NODE":30.0992,"ARG_OF_PERICENTER":99.1156,"MEAN_ANOMALY":261.019,"EPHEMERIS_TYPE":0,"CLASSIFICATION_TYPE":"U","NORAD_CAT_ID":47267,"ELEMENT_SET_NO":999,"REV_AT_EPOCH":23859,"BSTAR":0.00090107086,"MEAN_MOTION_DOT":3.37e-6,"MEAN_MOTION_DDOT":0},{"OBJECT_NAME":"ONEWEB-0122","OBJECT_ID":"2020-100L","EPOCH":"2025-11-30T14:45:10.170720","MEAN_MOTION":13.12442597,"ECCENTRICITY":0.00018599,"INCLINATION":87.8954,"RA_OF_ASC_NODE":30.103,"ARG_OF_PERICENTER":94.3097,"MEAN_ANOMALY":265.8244,"EPHEMERIS_TYPE":0,"CLASSIFICATION_TYPE":"U","NORAD_CAT_ID":47268,"ELEMENT_SET_NO":999,"REV_AT_EPOCH":23850,"BSTAR":0.0010336652,"MEAN_MOTION_DOT":3.85e-6,"MEAN_MOTION_DDOT":0},{"OBJECT_NAME":"ONEWEB-0123","OBJECT_ID":"2020-100M","EPOCH":"2025-11-30T14:38:21.762240","MEAN_MOTION":13.124423,"ECCENTRICITY":0.00016864,"INCLINATION":87.8952,"RA_OF_ASC_NODE":30.131,"ARG_OF_PERICENTER":101.458,"MEAN_ANOMALY":258.6738,"EPHEMERIS_TYPE":0,"CLASSIFICATION_TYPE":"U","NORAD_CAT_ID":47269,"ELEMENT_SET_NO":999,"REV_AT_EPOCH":23864,"BSTAR":0.0011665995,"MEAN_MOTION_DOT":4.32e-6,"MEAN_MOTION_DDOT":0},{"OBJECT_NAME":"ONEWEB-0124","OBJECT_ID":"2020-100N","EPOCH":"2025-11-30T14:22:00.197760","MEAN_MOTION":13.12443928,"ECCENTRICITY":0.00018736,"INCLINATION":87.8947,"RA_OF_ASC_NODE":30.1374,"ARG_OF_PERICENTER":103.9257,"MEAN_ANOMALY":256.208,"EPHEMERIS_TYPE":0,"CLASSIFICATION_TYPE":"U","NORAD_CAT_ID":47270,"ELEMENT_SET_NO":999,"REV_AT_EPOCH":23852,"BSTAR":0.00055254528,"MEAN_MOTION_DOT":2.12e-6,"MEAN_MOTION_DDOT":0},{"OBJECT_NAME":"ONEWEB-0125","OBJECT_ID":"2020-100P","EPOCH":"2025-11-30T10:09:43.305696","MEAN_MOTION":13.12443349,"ECCENTRICITY":0.00016725,"INCLINATION":87.8955,"RA_OF_ASC_NODE":30.1343,"ARG_OF_PERICENTER":108.3556,"MEAN_ANOMALY":251.7754,"EPHEMERIS_TYPE":0,"CLASSIFICATION_TYPE":"U","NORAD_CAT_ID":47271,"ELEMENT_SET_NO":999,"REV_AT_EPOCH":23856,"BSTAR":-0.0011454003,"MEAN_MOTION_DOT":-3.99e-6,"MEAN_MOTION_DDOT":0},{"OBJECT_NAME":"ONEWEB-0126","OBJECT_ID":"2020-100Q","EPOCH":"2025-11-30T14:19:52.154688","MEAN_MOTION":13.12443858,"ECCENTRICITY":0.00016622,"INCLINATION":87.8956,"RA_OF_ASC_NODE":30.1232,"ARG_OF_PERICENTER":96.8595,"MEAN_ANOMALY":263.2722,"EPHEMERIS_TYPE":0,"CLASSIFICATION_TYPE":"U","NORAD_CAT_ID":47272,"ELEMENT_SET_NO":999,"REV_AT_EPOCH":23865,"BSTAR":0.00045510492,"MEAN_MOTION_DOT":1.76e-6,"MEAN_MOTION_DDOT":0},{"OBJECT_NAME":"ONEWEB-0127","OBJECT_ID":"2020-100R","EPOCH":"2025-11-30T04:21:42.027552","MEAN_MOTION":13.12442337,"ECCENTRICITY":0.00017218,"INCLINATION":87.8949,"RA_OF_ASC_NODE":30.2167,"ARG_OF_PERICENTER":95.1954,"MEAN_ANOMALY":264.9371,"EPHEMERIS_TYPE":0,"CLASSIFICATION_TYPE":"U","NORAD_CAT_ID":47273,"ELEMENT_SET_NO":999,"REV_AT_EPOCH":23862,"BSTAR":-0.00077963408,"MEAN_MOTION_DOT":-2.68e-6,"MEAN_MOTION_DDOT":0},{"OBJECT_NAME":"ONEWEB-0128","OBJECT_ID":"2020-100S","EPOCH":"2025-11-30T14:03:18.482976","MEAN_MOTION":13.12444531,"ECCENTRICITY":0.00019701,"INCLINATION":87.8946,"RA_OF_ASC_NODE":30.1538,"ARG_OF_PERICENTER":94.4232,"MEAN_ANOMALY":265.7121,"EPHEMERIS_TYPE":0,"CLASSIFICATION_TYPE":"U","NORAD_CAT_ID":47274,"ELEMENT_SET_NO":999,"REV_AT_EPOCH":23869,"BSTAR":-0.0005834423,"MEAN_MOTION_DOT":-1.97e-6,"MEAN_MOTION_DDOT":0},{"OBJECT_NAME":"ONEWEB-0129","OBJECT_ID":"2020-100T","EPOCH":"2025-11-30T04:24:01.360512","MEAN_MOTION":13.12443194,"ECCENTRICITY":0.00015,"INCLINATION":87.8958,"RA_OF_ASC_NODE":30.1862,"ARG_OF_PERICENTER":58.9359,"MEAN_ANOMALY":301.1917,"EPHEMERIS_TYPE":0,"CLASSIFICATION_TYPE":"U","NORAD_CAT_ID":47275,"ELEMENT_SET_NO":999,"REV_AT_EPOCH":23857,"BSTAR":-0.00096065761,"MEAN_MOTION_DOT":-3.33e-6,"MEAN_MOTION_DDOT":0},{"OBJECT_NAME":"ONEWEB-0130","OBJECT_ID":"2020-100U","EPOCH":"2025-11-30T14:12:39.577536","MEAN_MOTION":13.12444266,"ECCENTRICITY":0.00018158,"INCLINATION":87.8955,"RA_OF_ASC_NODE":30.0995,"ARG_OF_PERICENTER":93.9697,"MEAN_ANOMALY":266.1639,"EPHEMERIS_TYPE":0,"CLASSIFICATION_TYPE":"U","NORAD_CAT_ID":47276,"ELEMENT_SET_NO":999,"REV_AT_EPOCH":23859,"BSTAR":3.1889349e-5,"MEAN_MOTION_DOT":2.4e-7,"MEAN_MOTION_DDOT":0},{"OBJECT_NAME":"ONEWEB-0131","OBJECT_ID":"2020-100V","EPOCH":"2025-11-30T14:07:59.172384","MEAN_MOTION":13.12444285,"ECCENTRICITY":0.00018033,"INCLINATION":87.8955,"RA_OF_ASC_NODE":30.1309,"ARG_OF_PERICENTER":99.434,"MEAN_ANOMALY":260.6993,"EPHEMERIS_TYPE":0,"CLASSIFICATION_TYPE":"U","NORAD_CAT_ID":47277,"ELEMENT_SET_NO":999,"REV_AT_EPOCH":23863,"BSTAR":-0.00036197254,"MEAN_MOTION_DOT":-1.18e-6,"MEAN_MOTION_DDOT":0},{"OBJECT_NAME":"ONEWEB-0132","OBJECT_ID":"2020-100W","EPOCH":"2025-11-30T14:50:02.116320","MEAN_MOTION":13.12442512,"ECCENTRICITY":0.00018031,"INCLINATION":87.8955,"RA_OF_ASC_NODE":30.127,"ARG_OF_PERICENTER":98.4502,"MEAN_ANOMALY":261.6831,"EPHEMERIS_TYPE":0,"CLASSIFICATION_TYPE":"U","NORAD_CAT_ID":47278,"ELEMENT_SET_NO":999,"REV_AT_EPOCH":23853,"BSTAR":0.00099434124,"MEAN_MOTION_DOT":3.7e-6,"MEAN_MOTION_DDOT":0},{"OBJECT_NAME":"ONEWEB-0133","OBJECT_ID":"2020-100X","EPOCH":"2025-11-30T13:23:24.097056","MEAN_MOTION":13.1244274,"ECCENTRICITY":0.00019237,"INCLINATION":87.895,"RA_OF_ASC_NODE":30.1012,"ARG_OF_PERICENTER":98.4726,"MEAN_ANOMALY":261.662,"EPHEMERIS_TYPE":0,"CLASSIFICATION_TYPE":"U","NORAD_CAT_ID":47279,"ELEMENT_SET_NO":999,"REV_AT_EPOCH":23868,"BSTAR":-0.00049361001,"MEAN_MOTION_DOT":-1.65e-6,"MEAN_MOTION_DDOT":0},{"OBJECT_NAME":"ONEWEB-0134","OBJECT_ID":"2020-100Y","EPOCH":"2025-11-30T14:29:00.976992","MEAN_MOTION":13.12443851,"ECCENTRICITY":0.00019147,"INCLINATION":87.8955,"RA_OF_ASC_NODE":30.0866,"ARG_OF_PERICENTER":91.9645,"MEAN_ANOMALY":268.1703,"EPHEMERIS_TYPE":0,"CLASSIFICATION_TYPE":"U","NORAD_CAT_ID":47280,"ELEMENT_SET_NO":999,"REV_AT_EPOCH":23866,"BSTAR":0.00099394409,"MEAN_MOTION_DOT":3.7e-6,"MEAN_MOTION_DDOT":0},{"OBJECT_NAME":"ONEWEB-0135","OBJECT_ID":"2020-100Z","EPOCH":"2025-11-30T10:07:22.286208","MEAN_MOTION":13.12441181,"ECCENTRICITY":0.00020916,"INCLINATION":87.8958,"RA_OF_ASC_NODE":30.163,"ARG_OF_PERICENTER":91.709,"MEAN_ANOMALY":268.4278,"EPHEMERIS_TYPE":0,"CLASSIFICATION_TYPE":"U","NORAD_CAT_ID":47281,"ELEMENT_SET_NO":999,"REV_AT_EPOCH":23866,"BSTAR":-0.0012823679,"MEAN_MOTION_DOT":-4.49e-6,"MEAN_MOTION_DDOT":0},{"OBJECT_NAME":"ONEWEB-0136","OBJECT_ID":"2020-100AA","EPOCH":"2025-11-30T14:14:59.737344","MEAN_MOTION":13.12443922,"ECCENTRICITY":0.00019412,"INCLINATION":87.8956,"RA_OF_ASC_NODE":30.0976,"ARG_OF_PERICENTER":87.6243,"MEAN_ANOMALY":272.5108,"EPHEMERIS_TYPE":0,"CLASSIFICATION_TYPE":"U","NORAD_CAT_ID":47282,"ELEMENT_SET_NO":999,"REV_AT_EPOCH":23861,"BSTAR":0.00025799793,"MEAN_MOTION_DOT":1.06e-6,"MEAN_MOTION_DDOT":0}]
