ONEWEB-0120             
1 47266U 20100J   25334.55495408 -.00000119  00000+0 -36654-3 0  9994
2 47266  87.8946  30.1443 0001703  97.5055 262.6267 13.12441262238679
ONEWEB-0121             
1 47267U 20100K   25334.61969951  .00000337  00000+0  90107-3 0  9994
2 47267  87.8954  30.0992 0001923  99.1156 261.0190 13.12442607238594
ONEWEB-0122             
1 47268U 20100L   25334.61470105  .00000385  00000+0  10337-2 0  9992
2 47268  87.8954  30.1030 0001859  94.3097 265.8244 13.12442597238509
ONEWEB-0123             
1 47269U 20100M   25334.60997410  .00000432  00000+0  11666-2 0  9994
2 47269  87.8952  30.1310 0001686 101.4580 258.6738 13.12442300238649
ONEWEB-0124             
1 47270U 20100N   25334.59861340  .00000212  00000+0  55255-3 0  9995
2 47270  87.8947  30.1374 0001873 103.9257 256.2080 13.12443928238529
ONEWEB-0125             
1 47271U 20100P   25334.42341789 -.00000399  00000+0 -11454-2 0  9998
2 47271  87.8955  30.1343 0001672 108.3556 251.7754 13.12443349238562
ONEWEB-0126             
1 47272U 20100Q   25334.59713142  .00000176  00000+0  45510-3 0  9995
2 47272  87.8956  30.1232 0001662  96.8595 263.2722 13.12443858238652
ONEWEB-0127             
1 47273U 20100R   25334.18173643 -.00000268  00000+0 -77963-3 0  9998
2 47273  87.8949  30.2167 0001721  95.1954 264.9371 13.12442337238626
ONEWEB-0128             
1 47274U 20100S   25334.58563059 -.00000197  00000+0 -58344-3 0  9990
2 47274  87.8946  30.1538 0001970  94.4232 265.7121 13.12444531238699
ONEWEB-0129             
1 47275U 20100T   25334.18334908 -.00000333  00000+0 -96066-3 0  9991
2 47275  87.8958  30.1862 0001500  58.9359 301.1917 13.12443194238576
ONEWEB-0130             
1 47276U 20100U   25334.59212474  .00000024  00000+0  31889-4 0  9998
2 47276  87.8955  30.0995 0001815  93.9697 266.1639 13.12444266238597
ONEWEB-0131             
1 47277U 20100V   25334.58887931 -.00000118  00000+0 -36197-3 0  9996
2 47277  87.8955  30.1309 0001803  99.4340 260.6993 13.12444285238639
ONEWEB-0132             
1 47278U 20100W   25334.61808005  .00000370  00000+0  99434-3 0  9997
2 47278  87.8955  30.1270 0001803  98.4502 261.6831 13.12442512238538
ONEWEB-0133             
1 47279U 20100X   25334.55791779 -.00000165  00000+0 -49361-3 0  9998
2 47279  87.8950  30.1012 0001923  98.4726 261.6620 13.12442740238684
ONEWEB-0134             
1 47280U 20100Y   25334.60348353  .00000370  00000+0  99394-3 0  9999
2 47280  87.8955  30.0866 0001914  91.9645 268.1703 13.12443851238661
ONEWEB-0135             
1 47281U 20100Z   25334.42178572 -.00000449  00000+0 -12824-2 0  9995
2 47281  87.8958  30.1630 0002091  91.7090 268.4278 13.12441181238668
ONEWEB-0136             
1 47282U 20100AA  25334.59374696  .00000106  00000+0  25800-3 0  9996
2 47282  87.8956  30.0976 0001941  87.6243 272.5108 13.12443922238614
